STARLINK-32893          
1 62897U 25024U   25179.68755896  .00012686  00000+0  46976-3 0  9990
2 62897  43.0013 319.4823 0001458 254.3665 105.7026 15.27576741 23421
STARLINK-32902          
1 62898U 25024V   25179.42216011  .00014086  00000+0  52053-3 0  9993
2 62898  42.9982 320.9240 0001157 282.5204  77.5518 15.27573585 23383
STARLINK-32661          
1 62899U 25024W   25179.77479201  .00012638  00000+0  46802-3 0  9990
2 62899  43.0034 319.2790 0001742 273.5167  86.5485 15.27576815 23431
STARLINK-11552 [DTC]    
1 62907U 25027A   25179.75610937  .00225441  00000+0  17090-2 0  9998
2 62907  43.0004  78.4138 0001595 260.8690  99.1997 15.70898195 23258
STARLINK-11561 [DTC]    
1 62908U 25027B   25179.09373016  .00132752  00000+0  10189-2 0  9994
2 62908  42.9999  82.0343 0002607 262.5364  97.5208 15.70901578 23113
STARLINK-11567 [DTC]    
1 62909U 25027C   25179.77203799  .00128883  00000+0  98907-3 0  9995
2 62909  43.0017  78.5407 0001939 255.6767 104.3885 15.70919808 23219
STARLINK-11569 [DTC]    
1 62910U 25027D   25179.74018108  .00147551  00000+0  11323-2 0  9991
2 62910  43.0043  78.2826 0003004 256.9372 103.1160 15.70854012 23211
STARLINK-11537 [DTC]    
1 62911U 25027E   25179.75079985  .00213215  00000+0  16145-2 0  9991
2 62911  43.0001  78.3692 0001788 243.5931 116.4754 15.70962957 23256
STARLINK-11565 [DTC]    
1 62912U 25027F   25179.14669331  .00114239  00000+0  88070-3 0  9998
2 62912  43.0002  81.5624 0002139 255.9017 104.1612 15.70863424 23124
STARLINK-11564 [DTC]    
1 62913U 25027G   25179.76142019  .00218916  00000+0  16605-2 0  9997
2 62913  43.0015  78.4553 0001726 264.1743  95.8928 15.70904672 23211
STARLINK-11566 [DTC]    
1 62914U 25027H   25179.76673619  .00187802  00000+0  14284-2 0  9993
2 62914  42.9999  78.4962 0001354 255.9259 104.1458 15.70937491 23253
STARLINK-11555 [DTC]    
1 62915U 25027J   25179.76763751  .00188375  00000+0  14347-2 0  9997
2 62915  43.0010  78.5027 0001515 247.7409 112.3298 15.70903384 23255
STARLINK-11430 [DTC]    
1 62916U 25027K   25179.84092191  .00125477  00000+0  96853-3 0  9997
2 62916  43.0013  78.1969 0001294 234.1651 125.9097 15.70794261 23263
STARLINK-11560 [DTC]    
1 62917U 25027L   25179.74549085  .00219455  00000+0  16645-2 0  9996
2 62917  43.0002  78.3236 0001536 259.4209 100.6485 15.70904287 23216
