[
  {
    "OBJECT_NAME": "STARLINK-32893",
    "OBJECT_ID": "2025-024U",
    "EPOCH": "2025-06-28T16:30:05.094144",
    "MEAN_MOTION": 15.27576741,
    "ECCENTRICITY": 0.0001458,
    "INCLINATION": 43.0013,
    "RA_OF_ASC_NODE": 319.4823,
    "ARG_OF_PERICENTER": 254.3665,
    "MEAN_ANOMALY": 105.7026,
    "EPHEMERIS_TYPE": 0,
    "CLASSIFICATION_TYPE": "U",
    "NORAD_CAT_ID": 62897,
    "ELEMENT_SET_NO": 999,
    "REV_AT_EPOCH": 2338,
    "BSTAR": 0.00046976,
    "MEAN_MOTION_DOT": 0.00012686,
    "MEAN_MOTION_DDOT": 0
  },
  {
    "OBJECT_NAME": "STARLINK-32902",
    "OBJECT_ID": "2025-024V",
    "EPOCH": "2025-06-28T10:07:54.633504",
    "MEAN_MOTION": 15.27573585,
    "ECCENTRICITY": 0.0001157,
    "INCLINATION": 42.9982,
    "RA_OF_ASC_NODE": 320.924,
    "ARG_OF_PERICENTER": 282.5204,
    "MEAN_ANOMALY": 77.5518,
    "EPHEMERIS_TYPE": 0,
    "CLASSIFICATION_TYPE": "U",
    "NORAD_CAT_ID": 62898,
    "ELEMENT_SET_NO": 999,
    "REV_AT_EPOCH": 2338,
    "BSTAR": 0.00052053,
    "MEAN_MOTION_DOT": 0.00014086,
    "MEAN_MOTION_DDOT": 0
  },
  {
    "OBJECT_NAME": "STARLINK-32661",
    "OBJECT_ID": "2025-024W",
    "EPOCH": "2025-06-28T18:35:42.029664",
    "MEAN_MOTION": 15.27576815,
    "ECCENTRICITY": 0.0001742,
    "INCLINATION": 43.0034,
    "RA_OF_ASC_NODE": 319.279,
    "ARG_OF_PERICENTER": 273.5167,
    "MEAN_ANOMALY": 86.5485,
    "EPHEMERIS_TYPE": 0,
    "CLASSIFICATION_TYPE": "U",
    "NORAD_CAT_ID": 62899,
    "ELEMENT_SET_NO": 999,
    "REV_AT_EPOCH": 2335,
    "BSTAR": 0.00046802,
    "MEAN_MOTION_DOT": 0.00012638,
    "MEAN_MOTION_DDOT": 0
  },
  {
    "OBJECT_NAME": "STARLINK-11552 [DTC]",
    "OBJECT_ID": "2025-027A",
    "EPOCH": "2025-06-28T18:08:47.849568",
    "MEAN_MOTION": 15.70898195,
    "ECCENTRICITY": 0.0001595,
    "INCLINATION": 43.0004,
    "RA_OF_ASC_NODE": 78.4138,
    "ARG_OF_PERICENTER": 260.869,
    "MEAN_ANOMALY": 99.1997,
    "EPHEMERIS_TYPE": 0,
    "CLASSIFICATION_TYPE": "U",
    "NORAD_CAT_ID": 62907,
    "ELEMENT_SET_NO": 999,
    "REV_AT_EPOCH": 2324,
    "BSTAR": 0.001709,
    "MEAN_MOTION_DOT": 0.00225441,
    "MEAN_MOTION_DDOT": 0
  },
  {
    "OBJECT_NAME": "STARLINK-11561 [DTC]",
    "OBJECT_ID": "2025-027B",
    "EPOCH": "2025-06-28T02:14:58.285824",
    "MEAN_MOTION": 15.70901578,
    "ECCENTRICITY": 0.0002607,
    "INCLINATION": 42.9999,
    "RA_OF_ASC_NODE": 82.0343,
    "ARG_OF_PERICENTER": 262.5364,
    "MEAN_ANOMALY": 97.5208,
    "EPHEMERIS_TYPE": 0,
    "CLASSIFICATION_TYPE": "U",
    "NORAD_CAT_ID": 62908,
    "ELEMENT_SET_NO": 999,
    "REV_AT_EPOCH": 2311,
    "BSTAR": 0.0010189,
    "MEAN_MOTION_DOT": 0.00132752,
    "MEAN_MOTION_DDOT": 0
  },
  {
    "OBJECT_NAME": "STARLINK-11567 [DTC]",
    "OBJECT_ID": "2025-027C",
    "EPOCH": "2025-06-28T18:31:44.082336",
    "MEAN_MOTION": 15.70919808,
    "ECCENTRICITY": 0.0001939,
    "INCLINATION": 43.0017,
    "RA_OF_ASC_NODE": 78.5407,
    "ARG_OF_PERICENTER": 255.6767,
    "MEAN_ANOMALY": 104.3885,
    "EPHEMERIS_TYPE": 0,
    "CLASSIFICATION_TYPE": "U",
    "NORAD_CAT_ID": 62909,
    "ELEMENT_SET_NO": 999,
    "REV_AT_EPOCH": 2319,
    "BSTAR": 0.00098907,
    "MEAN_MOTION_DOT": 0.00128883,
    "MEAN_MOTION_DDOT": 0
  },
  {
    "OBJECT_NAME": "STARLINK-11569 [DTC]",
    "OBJECT_ID": "2025-027D",
    "EPOCH": "2025-06-28T17:45:51.645312",
    "MEAN_MOTION": 15.70854012,
    "ECCENTRICITY": 0.0003004,
    "INCLINATION": 43.0043,
    "RA_OF_ASC_NODE": 78.2826,
    "ARG_OF_PERICENTER": 256.9372,
    "MEAN_ANOMALY": 103.116,
    "EPHEMERIS_TYPE": 0,
    "CLASSIFICATION_TYPE": "U",
    "NORAD_CAT_ID": 62910,
    "ELEMENT_SET_NO": 999,
    "REV_AT_EPOCH": 2319,
    "BSTAR": 0.0011323,
    "MEAN_MOTION_DOT": 0.00147551,
    "MEAN_MOTION_DDOT": 0
  },
  {
    "OBJECT_NAME": "STARLINK-11537 [DTC]",
    "OBJECT_ID": "2025-027E",
    "EPOCH": "2025-06-28T18:01:09.107040",
    "MEAN_MOTION": 15.70962957,
    "ECCENTRICITY": 0.0001788,
    "INCLINATION": 43.0001,
    "RA_OF_ASC_NODE": 78.3692,
    "ARG_OF_PERICENTER": 243.5931,
    "MEAN_ANOMALY": 116.4754,
    "EPHEMERIS_TYPE": 0,
    "CLASSIFICATION_TYPE": "U",
    "NORAD_CAT_ID": 62911,
    "ELEMENT_SET_NO": 999,
    "REV_AT_EPOCH": 2325,
    "BSTAR": 0.0016145,
    "MEAN_MOTION_DOT": 0.00213215,
    "MEAN_MOTION_DDOT": 0
  },
  {
    "OBJECT_NAME": "STARLINK-11565 [DTC]",
    "OBJECT_ID": "2025-027F",
    "EPOCH": "2025-06-28T03:31:14.301984",
    "MEAN_MOTION": 15.70863424,
    "ECCENTRICITY": 0.0002139,
    "INCLINATION": 43.0002,
    "RA_OF_ASC_NODE": 81.5624,
    "ARG_OF_PERICENTER": 255.9017,
    "MEAN_ANOMALY": 104.1612,
    "EPHEMERIS_TYPE": 0,
    "CLASSIFICATION_TYPE": "U",
    "NORAD_CAT_ID": 62912,
    "ELEMENT_SET_NO": 999,
    "REV_AT_EPOCH": 2312,
    "BSTAR": 0.0008807,
    "MEAN_MOTION_DOT": 0.00114239,
    "MEAN_MOTION_DDOT": 0
  },
  {
    "OBJECT_NAME": "STARLINK-11564 [DTC]",
    "OBJECT_ID": "2025-027G",
    "EPOCH": "2025-06-28T18:16:26.704416",
    "MEAN_MOTION": 15.70904672,
    "ECCENTRICITY": 0.0001726,
    "INCLINATION": 43.0015,
    "RA_OF_ASC_NODE": 78.4553,
    "ARG_OF_PERICENTER": 264.1743,
    "MEAN_ANOMALY": 95.8928,
    "EPHEMERIS_TYPE": 0,
    "CLASSIFICATION_TYPE": "U",
    "NORAD_CAT_ID": 62913,
    "ELEMENT_SET_NO": 999,
    "REV_AT_EPOCH": 2319,
    "BSTAR": 0.0016605,
    "MEAN_MOTION_DOT": 0.00218916,
    "MEAN_MOTION_DDOT": 0
  },
  {
    "OBJECT_NAME": "STARLINK-11566 [DTC]",
    "OBJECT_ID": "2025-027H",
    "EPOCH": "2025-06-28T18:24:06.006816",
    "MEAN_MOTION": 15.70937491,
    "ECCENTRICITY": 0.0001354,
    "INCLINATION": 42.9999,
    "RA_OF_ASC_NODE": 78.4962,
    "ARG_OF_PERICENTER": 255.9259,
    "MEAN_ANOMALY": 104.1458,
    "EPHEMERIS_TYPE": 0,
    "CLASSIFICATION_TYPE": "U",
    "NORAD_CAT_ID": 62914,
    "ELEMENT_SET_NO": 999,
    "REV_AT_EPOCH": 2324,
    "BSTAR": 0.0014284,
    "MEAN_MOTION_DOT": 0.00187802,
    "MEAN_MOTION_DDOT": 0
  },
  {
    "OBJECT_NAME": "STARLINK-11555 [DTC]",
    "OBJECT_ID": "2025-027J",
    "EPOCH": "2025-06-28T18:25:23.880864",
    "MEAN_MOTION": 15.70903384,
    "ECCENTRICITY": 0.0001515,
    "INCLINATION": 43.001,
    "RA_OF_ASC_NODE": 78.5027,
    "ARG_OF_PERICENTER": 247.7409,
    "MEAN_ANOMALY": 112.3298,
    "EPHEMERIS_TYPE": 0,
    "CLASSIFICATION_TYPE": "U",
    "NORAD_CAT_ID": 62915,
    "ELEMENT_SET_NO": 999,
    "REV_AT_EPOCH": 2325,
    "BSTAR": 0.0014347,
    "MEAN_MOTION_DOT": 0.00188375,
    "MEAN_MOTION_DDOT": 0
  },
  {
    "OBJECT_NAME": "STARLINK-11430 [DTC]",
    "OBJECT_ID": "2025-027K",
    "EPOCH": "2025-06-28T20:10:55.653024",
    "MEAN_MOTION": 15.70794261,
    "ECCENTRICITY": 0.0001294,
    "INCLINATION": 43.0013,
    "RA_OF_ASC_NODE": 78.1969,
    "ARG_OF_PERICENTER": 234.1651,
    "MEAN_ANOMALY": 125.9097,
    "EPHEMERIS_TYPE": 0,
    "CLASSIFICATION_TYPE": "U",
    "NORAD_CAT_ID": 62916,
    "ELEMENT_SET_NO": 999,
    "REV_AT_EPOCH": 2326,
    "BSTAR": 0.00096853,
    "MEAN_MOTION_DOT": 0.00125477,
    "MEAN_MOTION_DDOT": 0
  },
  {
    "OBJECT_NAME": "STARLINK-11560 [DTC]",
    "OBJECT_ID": "2025-027L",
    "EPOCH": "2025-06-28T17:53:30.409440",
    "MEAN_MOTION": 15.70904287,
    "ECCENTRICITY": 0.0001536,
    "INCLINATION": 43.0002,
    "RA_OF_ASC_NODE": 78.3236,
    "ARG_OF_PERICENTER": 259.4209,
    "MEAN_ANOMALY": 100.6485,
    "EPHEMERIS_TYPE": 0,
    "CLASSIFICATION_TYPE": "U",
    "NORAD_CAT_ID": 62917,
    "ELEMENT_SET_NO": 999,
    "REV_AT_EPOCH": 2319,
    "BSTAR": 0.0016645,
    "MEAN_MOTION_DOT": 0.00219455,
    "MEAN_MOTION_DDOT": 0
  }
]